ONEWEB-0456             
1 51646U 22012AA  25043.50996732 -.00000508  00000+0 -14926-2 0  9992
2 51646  87.8901 133.8218 0001993 108.0930 252.0415 13.10374887145210
ONEWEB-0457             
1 51647U 22012AB  25043.48674290 -.00000009  00000+0 -61645-4 0  9990
2 51647  87.8904 133.8697 0001452  99.4016 260.7276 13.10371323145216
ONEWEB-0458             
1 51648U 22012AC  25043.50830510 -.00000507  00000+0 -14899-2 0  9993
2 51648  87.8892 133.8657 0001731 110.8453 249.2860 13.10374805145176
ONEWEB-0461             
1 51649U 22012AD  25043.44079271  .00000065  00000+0  13295-3 0  9993
2 51649  87.9051 103.4266 0001842  98.0598 262.0743 13.17649763149390
ONEWEB-0463             
1 51650U 22012AE  25043.57409983  .00000085  00000+0  18578-3 0  9997
2 51650  87.9056 103.4574 0001797 101.3875 258.7459 13.17650769149196
ONEWEB-0464             
1 51651U 22012AF  25043.50498872 -.00000602  00000+0 -17623-2 0  9992
2 51651  87.8909 133.8735 0002151 111.1306 249.0051 13.10372845145198
ONEWEB-0468             
1 51652U 22012AG  25043.51162732 -.00000422  00000+0 -12456-2 0  9996
2 51652  87.8912 133.8645 0001827 108.0831 252.0495 13.10374714145171
ONEWEB-0473             
1 51653U 22012AH  25043.49668469 -.00000471  00000+0 -13865-2 0  9991
2 51653  87.8907 133.8706 0001816 111.5818 248.5503 13.10370602145178
ONEWEB-0474             
1 51654U 22012AJ  25043.48839057 -.00000136  00000+0 -42690-3 0  9991
2 51654  87.8896 133.8472 0001930 114.0719 246.0610 13.10370003145167
ONEWEB-0475             
1 51655U 22012AK  25043.58591503  .00000070  00000+0  14642-3 0  9995
2 51655  87.9055 103.4344 0001969 123.8715 236.2604 13.17649385149216
ONEWEB-0490             
1 54113U 22138A   25043.50972811  .00000035  00000+0  55590-4 0  9992
2 54113  87.9150  42.2907 0001959  92.4948 267.6409 13.19727285112249
ONEWEB-0492             
1 54114U 22138B   25043.53501289  .00000088  00000+0  18638-3 0  9992
2 54114  87.9155  42.3018 0002104  88.4273 271.7101 13.19725285112252
ONEWEB-0495             
1 54115U 22138C   25043.51291063  .00000038  00000+0  62183-4 0  9997
2 54115  87.9155  42.3176 0002326 105.2541 254.8849 13.19725608112238
ONEWEB-0497             
1 54116U 22138D   25043.52551979  .00000050  00000+0  91903-4 0  9990
2 54116  87.9150  42.2928 0001915  91.5712 268.5640 13.19728236112228
ONEWEB-0499             
1 54117U 22138E   25043.50815548  .00000136  00000+0  30766-3 0  9998
2 54117  87.9156  42.3081 0001593  99.6966 260.4347 13.19726323112239
ONEWEB-0500             
1 54118U 22138F   25043.51131105 -.00000022  00000+0 -88017-4 0  9999
2 54118  87.9152  42.2962 0001895  87.6234 272.5115 13.19725348112247
ONEWEB-0501             
1 54119U 22138G   25043.54133058  .00000097  00000+0  20900-3 0  9998
2 54119  87.9150  42.2853 0002046 101.8552 258.2810 13.19725453112224
ONEWEB-0502             
1 54120U 22138H   25043.52711600  .00000061  00000+0  12120-3 0  9999
2 54120  87.9150  42.2741 0001848  99.3049 260.8292 13.19725290112247
ONEWEB-0503             
1 54121U 22138J   25043.51605832  .00000074  00000+0  15138-3 0  9994
2 54121  87.9149  42.2819 0001498  89.9019 270.2285 13.19725187112236
ONEWEB-0504             
1 54122U 22138K   25043.50341884  .00000086  00000+0  18277-3 0  9998
2 54122  87.9153  42.2959 0001748  99.6005 260.5325 13.19725456112245
ONEWEB-0505             
1 54123U 22138L   25043.42444699  .00000048  00000+0  88506-4 0  9999
2 54123  87.9151  42.3032 0002031 107.2625 252.8730 13.19724496112211
ONEWEB-0506             
1 54124U 22138M   25043.55080062  .00000090  00000+0  19341-3 0  9991
2 54124  87.9150  42.2751 0001945  95.1041 265.0314 13.19727446112221
ONEWEB-0507             
1 54125U 22138N   25043.41970845  .00000158  00000+0  36217-3 0  9990
2 54125  87.9160  42.3427 0002031  93.9043 266.2322 13.19724694112256
ONEWEB-0508             
1 54126U 22138P   25043.41655032  .00000149  00000+0  34054-3 0  9996
2 54126  87.9155  42.3299 0002218  97.8921 262.2464 13.19726226112237
ONEWEB-0509             
1 54127U 22138Q   25043.54290424  .00000075  00000+0  15503-3 0  9997
2 54127  87.9149  42.2756 0001904  92.9313 267.2038 13.19725101112222
ONEWEB-0510             
1 54128U 22138R   25043.43960012  .00000052  00000+0  95582-4 0  9994
2 54128  87.9290  11.8781 0001988  76.8099 283.3256 13.20771686114633
ONEWEB-0511             
1 54129U 22138S   25043.53974956  .00000107  00000+0  23545-3 0  9998
2 54129  87.9150  42.2809 0001540  94.3019 265.8290 13.19725156112257
ONEWEB-0512             
1 54130U 22138T   25043.53185095  .00000046  00000+0  81824-4 0  9995
2 54130  87.9157  42.3173 0001938 103.7273 256.4075 13.19725723112223
ONEWEB-0513             
1 54131U 22138U   25043.50263778  .00000141  00000+0  31893-3 0  9994
2 54131  87.9156  42.3116 0001681 106.5676 253.5642 13.19724209112106
ONEWEB-0514             
1 54132U 22138V   25043.39600940  .00000058  00000+0  11373-3 0  9996
2 54132  87.9151  42.3195 0001800  88.4891 271.6448 13.19724538112222
ONEWEB-0515             
1 54133U 22138W   25043.42697072  .00000040  00000+0  67644-4 0  9997
2 54133  87.9288  11.8578 0002538  65.3494 294.7903 13.20770611114658
ONEWEB-0516             
1 54134U 22138X   25043.52237967  .00000049  00000+0  90317-4 0  9994
2 54134  87.9159  42.3217 0002005  91.4608 268.6755 13.19725817112245
ONEWEB-0517             
1 54135U 22138Y   25043.42602087  .00000159  00000+0  36372-3 0  9995
2 54135  87.9151  42.3090 0001475  91.7677 268.3625 13.19725986112235
ONEWEB-0518             
1 54136U 22138Z   25043.52079519  .00000030  00000+0  42357-4 0  9994
2 54136  87.9158  42.3183 0001749  90.5897 269.5436 13.19725436112245
ONEWEB-0519             
1 54137U 22138AA  25043.54606920  .00000099  00000+0  21430-3 0  9992
2 54137  87.9150  42.2788 0001586  91.9775 268.1540 13.19725512112254
ONEWEB-0520             
1 54138U 22138AB  25043.50500468  .00000041  00000+0  69219-4 0  9994
2 54138  87.9151  42.2904 0002095  98.8627 261.2743 13.19724982112231
ONEWEB-0521             
1 54139U 22138AC  25043.53817279  .00000067  00000+0  13543-3 0  9995
2 54139  87.9149  42.2731 0001613  84.3828 275.7489 13.19725240112184
ONEWEB-0522             
1 54140U 22138AD  25043.51763225  .00000046  00000+0  81523-4 0  9997
2 54140  87.9149  42.2787 0001982  89.5945 270.5415 13.19725776112224
ONEWEB-0523             
1 54141U 22138AE  25043.41434675  .00000123  00000+0  27122-3 0  9991
2 54141  87.9290  11.8899 0001961  55.3309 304.8009 13.20772915115525
ONEWEB-0524             
1 54142U 22138AF  25043.40329410  .00000111  00000+0  24081-3 0  9999
2 54142  87.9289  11.8944 0002717  71.9375 288.2054 13.20771325114654
ONEWEB-0525             
1 54143U 22138AG  25043.53659364  .00000070  00000+0  14185-3 0  9996
2 54143  87.9151  42.2904 0001949  99.3090 260.8264 13.19726133112248
ONEWEB-0526             
1 54144U 22138AH  25043.41812848  .00000146  00000+0  33244-3 0  9993
2 54144  87.9152  42.3048 0001977  91.2581 268.8778 13.19724748112201
ONEWEB-0529             
1 54145U 22138AJ  25043.42128906  .00000125  00000+0  28062-3 0  9999
2 54145  87.9158  42.3368 0002010  96.3496 263.7865 13.19724859112229
ONEWEB-0531             
1 54146U 22138AK  25043.61636724  .00000150  00000+0  33579-3 0  9990
2 54146  87.9292  11.8452 0002246  58.4905 301.6448 13.20772542114684
ONEWEB-0535             
1 54147U 22138AL  25043.53025700  .00000018  00000+0  12395-4 0  9995
2 54147  87.9151  42.2791 0001838  79.7940 280.3400 13.19723215112257
ONEWEB-0536             
1 54148U 22138AM  25043.60374126  .00000104  00000+0  22303-3 0  9998
2 54148  87.9289  11.8946 0002389  58.4115 301.7252 13.20771353114673
ONEWEB-0527             
1 54642U 22166A   25043.56702328 -.00000007  00000+0 -49212-4 0  9995
2 54642  87.9350 341.5773 0001950  79.4571 280.6782 13.21827576106858
ONEWEB-0528             
1 54643U 22166B   25043.57333635 -.00000008  00000+0 -50482-4 0  9990
2 54643  87.9354 341.5710 0001892  82.7825 277.3524 13.21827453106860
ONEWEB-0539             
1 54644U 22166C   25043.53389278  .00000132  00000+0  28705-3 0  9999
2 54644  87.9333 341.5834 0001686  82.0305 278.1021 13.21823235106856
ONEWEB-0540             
1 54645U 22166D   25043.54020262 -.00000416  00000+0 -10379-2 0  9990
2 54645  87.9348 341.5929 0001602  84.6246 275.5070 13.21825909106842
ONEWEB-0542             
1 54646U 22166E   25043.54337088  .00000061  00000+0  11697-3 0  9997
2 54646  87.9333 341.5799 0001390  77.4068 282.7221 13.21826639106858
ONEWEB-0545             
1 54647U 22166F   25043.58594577  .00000010  00000+0 -64979-5 0  9998
2 54647  87.9345 341.5697 0001232  91.7466 268.3809 13.21826838106825
ONEWEB-0580             
1 54648U 22166G   25043.55913584 -.00000030  00000+0 -10366-3 0  9991
2 54648  87.9351 341.5616 0001393  76.3040 283.8249 13.21825010106864
ONEWEB-0582             
1 54649U 22166H   25043.37463207  .00000050  00000+0  88597-4 0  9996
2 54649  87.9331 341.6269 0001210  72.7278 287.3989 13.21826684106812
ONEWEB-0583             
1 54650U 22166J   25043.53706779  .00000126  00000+0  27392-3 0  9999
2 54650  87.9347 341.5922 0001689  81.8524 278.2802 13.21826078106844
ONEWEB-0584             
1 54651U 22166K   25043.55756357  .00000033  00000+0  49406-4 0  9997
2 54651  87.9353 341.5659 0001424  70.7051 289.4236 13.21826432106836
ONEWEB-0585             
1 54652U 22166L   25043.35570117  .00000063  00000+0  12040-3 0  9990
2 54652  87.9342 341.6067 0001909  78.3833 281.7515 13.21826695106813
ONEWEB-0586             
1 54653U 22166M   25043.36832339 -.00000785  00000+0 -19332-2 0  9992
2 54653  87.9347 341.6173 0001567  79.8201 280.3110 13.21818400106813
ONEWEB-0587             
1 54654U 22166N   25043.52917991  .00000105  00000+0  22362-3 0  9991
2 54654  87.9347 341.5368 0002036  79.6583 280.4780 13.21827498106992
